{
  "type": "FeatureCollection",
  "features": [
    {
      "type": "Feature",
      "properties": {
        "start": "Müggelpark Friedrichshagen",
        "end": "Dahme",
        "waterbody": "Müggelspree"
      },
      "geometry": {
        "type": "LineString",
        "coordinates": [
          [
            13.627875,
            52.444011
          ],
          [
            13.627682,
            52.443857
          ],
          [
            13.62648,
            52.444021
          ],
          [
            13.625219,
            52.444593
          ],
          [
            13.617908,
            52.444436
          ],
          [
            13.608606,
            52.447549
          ],
          [
            13.604486,
            52.448451
          ],
          [
            13.601503,
            52.449523
          ],
          [
            13.595667,
            52.449903
          ],
          [
            13.588028,
            52.449314
          ],
          [
            13.585367,
            52.44798
          ],
          [
            13.583672,
            52.446829
          ],
          [
            13.581628,
            52.446633
          ],
          [
            13.580947,
            52.447182
          ],
          [
            13.57775,
            52.448373
          ],
          [
            13.574831,
            52.448543
          ],
          [
            13.572836,
            52.448176
          ]
        ]
      }
    },
    {
      "type": "Feature",
      "properties": {
        "start": "Dahme",
        "end": "Britzer Verbindungskanal",
        "waterbody": "Spree"
      },
      "geometry": {
        "type": "LineString",
        "coordinates": [
          [
            13.572686,
            52.44815
          ],
          [
            13.569145,
            52.449693
          ],
          [
            13.566527,
            52.452662
          ],
          [
            13.564296,
            52.453891
          ],
          [
            13.558352,
            52.453891
          ],
          [
            13.553202,
            52.45397
          ],
          [
            13.546615,
            52.455526
          ],
          [
            13.53977,
            52.456258
          ],
          [
            13.535457,
            52.455552
          ],
          [
            13.531981,
            52.453878
          ],
          [
            13.52829,
            52.453669
          ],
          [
            13.524342,
            52.45414
          ],
          [
            13.522131,
            52.455578
          ],
          [
            13.520501,
            52.457448
          ],
          [
            13.518677,
            52.458324
          ],
          [
            13.515372,
            52.458925
          ],
          [
            13.511853,
            52.460363
          ],
          [
            13.506467,
            52.462364
          ],
          [
            13.50282,
            52.464521
          ],
          [
            13.501532,
            52.466377
          ],
          [
            13.498957,
            52.469802
          ]
        ]
      }
    },
    { "type": "Feature", "properties": {
        "start": "Spree/Britzer Verbindungskanal",
        "end": "Insel der Jugend",
        "waterbody": "Spree"
      },
      "geometry": {
        "type": "LineString",
        "coordinates": [
          [
            13.498791,
            52.469916
          ],
          [
            13.497509,
            52.471018
          ],
          [
            13.496527,
            52.472308
          ],
          [
            13.495696,
            52.474135
          ],
          [
            13.495502,
            52.475403
          ],
          [
            13.496586,
            52.477853
          ],
          [
            13.497938,
            52.479291
          ],
          [
            13.498142,
            52.480101
          ],
          [
            13.49708,
            52.48099
          ],
          [
            13.49576,
            52.482088
          ],
          [
            13.494687,
            52.48491
          ],
          [
            13.492928,
            52.487158
          ],
          [
            13.491039,
            52.488438
          ],
          [13.489451,52.488673],[13.486855,52.488523],[13.48354,52.488059],[13.481126,52.488353]

        ]
      }
    },
    {"type":"Feature","properties":{"start": "Insel der Jugend", "end": "Neuköllner Schiffahrtskanal", "waterbody": "Spree"},
      "geometry":{"type":"LineString","coordinates":[[13.480976,52.488392],[13.478004,52.489823],[13.475032,52.491313],[13.471459,52.492175],[13.468122,52.493364],[13.465451,52.494474],[13.464367,52.495258],[13.46235,52.496199],[13.460741,52.496656],[13.459314,52.496878],[13.459014,52.497192],[13.458241,52.497492],[13.456213,52.498178],[13.45499,52.498629],[13.453896,52.498994],[13.452812,52.499412],[13.452265,52.499726],[13.451632,52.499869],[13.45072,52.499497],[13.450677,52.499177],[13.450457,52.498779],[13.450146,52.498537],[13.449787,52.498224],[13.449486,52.498031],[13.448628,52.497384],[13.44763,52.496676],[13.446617,52.495869],[13.445957,52.495363],[13.445179,52.494755],[13.444412,52.49419],[13.441097,52.491652],[13.439112,52.490578]]}},
    {"type":"Feature","properties":{"start": "Spree", "end": "Hafen Britz Ost", "waterbody": "Neuköllner Schiffahrtskanal" },"geometry":{"type":"LineString","coordinates":[[13.498764,52.469828],[13.497691,52.469194],[13.494644,52.465848],[13.491307,52.462553],[13.488808,52.460873],[13.486018,52.459742],[13.481673,52.458932],[13.478884,52.45884],[13.456256,52.4592]]}},
    {"type":"Feature","properties":{"start": "kleiner Müggelsee", "end": "Müggelpark Friedrichshagen", "waterbody": "Müggelsee"},"geometry":{"type":"LineString","coordinates":[[13.627971,52.443965],[13.628347,52.443782],[13.633347,52.441179],[13.638368,52.439139],[13.645277,52.437857],[13.6518,52.437333],[13.658409,52.436967],[13.665147,52.436444],[13.671284,52.435659],[13.674417,52.434586],[13.675961,52.433334],[13.677356,52.431839],[13.678794,52.430295]]}},
    {"type":"Feature","properties":{"start": "Dämeritzsee", "end": "kleiner Müggelsee", "waterbody": "Müggelspree"},"geometry":{"type":"LineString","coordinates":[[13.678966,52.430164],[13.681959,52.429438],[13.683643,52.429046],[13.686181,52.428993],[13.686969,52.429082],[13.6889,52.4297],[13.689888,52.43003],[13.691143,52.430092],[13.692838,52.429975],[13.695316,52.429664],[13.696899,52.429373],[13.698728,52.428791],[13.699458,52.428025],[13.700461,52.42725],[13.701405,52.42672],[13.70258,52.426416],[13.705251,52.426174],[13.706512,52.425968],[13.708239,52.425755],[13.710905,52.425762],[13.712279,52.425892],[13.713813,52.425847],[13.715057,52.425385],[13.71613,52.424525],[13.717203,52.423445],[13.718823,52.422196],[13.721001,52.421012],[13.722879,52.42056],[13.724831,52.420521],[13.728179,52.420717]]}},
    {"type":"Feature","properties":{"start": "Dämeritzsee", "end": "Schmöckwitz", "waterbody": "Gosener Graben, Seddinsee"},"geometry":{"type":"LineString","coordinates":[[13.728898,52.420285],[13.72776,52.418231],[13.726757,52.416834],[13.72658,52.416572],[13.726376,52.416454],[13.726103,52.416326],[13.725384,52.416241],[13.725078,52.415754],[13.724676,52.415486],[13.724284,52.415198],[13.724054,52.414887],[13.723957,52.414432],[13.723732,52.413804],[13.723522,52.413372],[13.723093,52.413064],[13.722911,52.412865],[13.722734,52.412629],[13.722321,52.412551],[13.721747,52.412253],[13.721403,52.411899],[13.72128,52.411615],[13.720953,52.411494],[13.720492,52.411585],[13.720003,52.411677],[13.719494,52.411605],[13.718818,52.411366],[13.718571,52.411222],[13.717981,52.411088],[13.71738,52.410947],[13.715867,52.410617],[13.71525,52.410505],[13.714854,52.410381],[13.714435,52.410299],[13.713834,52.410168],[13.713346,52.410047],[13.712858,52.409884],[13.71267,52.409619],[13.712638,52.409327],[13.712858,52.409131],[13.713132,52.408941],[13.71348,52.408771],[13.713673,52.40864],[13.713845,52.408516],[13.713732,52.408277],[13.713491,52.407963],[13.713298,52.407714],[13.713223,52.407442],[13.713148,52.40724],[13.712901,52.407014],[13.712617,52.406719],[13.712407,52.40648],[13.712263,52.406274],[13.712241,52.40614],[13.712499,52.405931],[13.712853,52.405656],[13.713062,52.405397],[13.713158,52.405076],[13.713169,52.404687],[13.713062,52.404376],[13.712933,52.404059],[13.712482,52.40378],[13.711925,52.403649],[13.711689,52.403427],[13.711667,52.4031],[13.711646,52.40272],[13.711388,52.402353],[13.711109,52.402085],[13.710326,52.402006],[13.70979,52.401843],[13.709618,52.401535],[13.709124,52.401588],[13.708577,52.401646],[13.70818,52.401398],[13.707891,52.401064],[13.707676,52.400697],[13.707182,52.400632],[13.706517,52.400841],[13.705927,52.400828],[13.70538,52.400501],[13.704983,52.400102],[13.704726,52.399912],[13.704618,52.399679],[13.704168,52.399368],[13.703797,52.3991],[13.703594,52.398776],[13.703465,52.398599],[13.703261,52.398468],[13.70295,52.398328],[13.702601,52.398112],[13.702392,52.397981],[13.701877,52.397781],[13.698256,52.396396],[13.694286,52.394458],[13.689737,52.392494],[13.684201,52.39108],[13.680961,52.389993],[13.680167,52.389338],[13.679502,52.387518],[13.679116,52.385135],[13.674502,52.382135],[13.668687,52.379869],[13.660812,52.378704]]}},
    {"type":"Feature","properties":{"start": "Schmöckwitz", "end": "Teltowkanal", "waterbody": "Dahme"},"geometry":{"type":"LineString","coordinates":[[13.659739,52.3789],[13.656145,52.379568],[13.654933,52.380701],[13.65253,52.381598],[13.649011,52.383445],[13.646071,52.385331],[13.645492,52.38744],[13.644998,52.390491],[13.642981,52.393215],[13.640964,52.394472],[13.638604,52.395231],[13.636351,52.397365],[13.632703,52.398203],[13.630128,52.398727],[13.628068,52.400062],[13.627381,52.401712],[13.625751,52.403545],[13.624334,52.405836],[13.624195,52.406817],[13.622671,52.408048],[13.6178,52.409678],[13.614893,52.410181],[13.606074,52.411805],[13.601321,52.412564],[13.59645,52.413133],[13.591837,52.413048],[13.589605,52.41348],[13.587095,52.414403],[13.584895,52.415967],[13.584112,52.41776],[13.583812,52.41986],[13.581988,52.422575],[13.581408,52.424859],[13.579123,52.426834],[13.575561,52.428562]]}},
    {"type":"Feature","properties":{"start": "Hafen Britz Ost", "end": "Landwehrkanal", "waterbody": ""},"geometry":{"type":"LineString","coordinates":[[13.43909,52.490476],[13.439562,52.489562],[13.439906,52.488281],[13.440335,52.487471],[13.440914,52.486857],[13.443038,52.485694],[13.45778,52.478115],[13.458488,52.477409],[13.457844,52.473488],[13.457222,52.470743],[13.456621,52.469776],[13.454926,52.467658],[13.454014,52.46639],[13.453317,52.465789],[13.452737,52.464782],[13.452737,52.464089],[13.45293,52.4632],[13.456256,52.459344]]}},
    {"type":"Feature","properties":{"start": "Teltowkanal", "end": "Köpenick", "waterbody": "Dahme"},"geometry":{"type":"LineString","coordinates":[[13.575432,52.428777],[13.574917,52.430531],[13.574188,52.432127],[13.5726,52.433579],[13.572922,52.434861],[13.574317,52.43579],[13.575668,52.436797],[13.575325,52.438275],[13.574317,52.439609],[13.572729,52.441022],[13.571484,52.442082],[13.571355,52.443782],[13.571742,52.444776],[13.572299,52.446202],[13.572745,52.448085]]}},
    {"type":"Feature","properties":{"start": "Zeuthen", "end": "Schmöckwitz", "waterbody": "Dahme (Zeuthener See)"},"geometry":{"type":"LineString","coordinates":[[13.659976,52.378704],[13.655963,52.3767],[13.653667,52.37497],[13.649955,52.371839],[13.648582,52.368551],[13.641586,52.358462],[13.641329,52.355841],[13.636007,52.346614],[13.63781,52.343677],[13.639612,52.341422]]}},
    {"type":"Feature","properties":{"start": "Schleuse Wernsdorf", "end": "Zeuthen", "waterbody": "Krossinsee"},"geometry":{"type":"LineString","coordinates":[[13.640041,52.341317],[13.646822,52.339115],[13.648882,52.339167],[13.655577,52.346561],[13.663044,52.354268],[13.664932,52.357256],[13.666992,52.357833],[13.677979,52.365433],[13.688809,52.366386],[13.692291,52.366976],[13.693278,52.367801],[13.693181,52.368486],[13.693165,52.369082],[13.693707,52.369498],[13.695236,52.370484],[13.69625,52.371204],[13.69647,52.371424],[13.6967,52.371718],[13.697419,52.372056],[13.698122,52.372301],[13.699651,52.372734],[13.701566,52.372838],[13.702751,52.373176]]}},
    {"type":"Feature","properties":{"start": "Schleuse Wernsdorf", "end": "Schmöckwitz", "waterbody": "Oder-Spree-Kanal"},"geometry":{"type":"LineString","coordinates":[[13.702676,52.373372],[13.697891,52.374538],[13.688772,52.375927],[13.681262,52.377276],[13.677721,52.377695],[13.674046,52.378242],[13.669009,52.378206],[13.66461,52.377931],[13.660684,52.378481]]}},
    {"type":"Feature","properties":{"start": "Dahme", "end": "Hafen Britz Ost", "waterbody": "Teltowkanal"},"geometry":{"type":"LineString","coordinates":[[13.575271,52.42865],[13.572659,52.428192],[13.548374,52.425179],[13.544619,52.425075],[13.526444,52.426043],[13.516338,52.426619],[13.509128,52.427888],[13.504536,52.429955],[13.497584,52.433396],[13.478487,52.442605],[13.466406,52.448399],[13.463466,52.450138],[13.462565,52.451053],[13.460312,52.454074],[13.456321,52.459043]]}},
    {"type":"Feature","properties":{"start": "Spree", "end": "Dahme", "sidetrack" : true, "waterbody": "Kietzer Graben"},"geometry":{"type":"LineString","coordinates":[[13.58158,52.446574],[13.580915,52.445894],[13.580368,52.445613],[13.579295,52.445129],[13.578565,52.444815],[13.577809,52.444488],[13.576328,52.443978],[13.575631,52.443618],[13.574992,52.442964],[13.574483,52.442415],[13.573431,52.440711]]}},
    {"type":"Feature","properties":{"start": "Spree", "end": "Rummelsburger Bucht", "sidetrack" : true},"geometry":{"type":"LineString","coordinates":[[13.487563,52.488804],[13.487284,52.489562],[13.486673,52.490261],[13.485374,52.491117],[13.483776,52.491953],[13.483196,52.492253],[13.482027,52.492946],[13.480911,52.49371],[13.480139,52.494474],[13.478165,52.495689],[13.476319,52.497048],[13.474302,52.498537]]}},
    {"type":"Feature","properties":{"start": "Spree", "end": "Spree", "sidetrack" : true, "waterbody": "Neu-Venedig"},"geometry":{"type":"LineString","coordinates":[[13.696185,52.429634],[13.696357,52.429788],[13.697006,52.429896],[13.697296,52.429978],[13.697628,52.430275],[13.698149,52.430374],[13.699147,52.430397],[13.700075,52.430387],[13.701748,52.430233],[13.702778,52.430089],[13.703519,52.429804],[13.704876,52.429435],[13.706287,52.42916],[13.707451,52.429029],[13.708105,52.429036],[13.708781,52.429137],[13.709221,52.429042],[13.710229,52.427891],[13.710852,52.426949],[13.711184,52.426412],[13.71164,52.425961]]}},
    {"type":"Feature","properties":{"start": "Spree", "end": "Spree", "sidetrack" : true, "waterbody": "Neu-Venedig"},"geometry":{"type":"LineString","coordinates":[[13.703551,52.42987],[13.704012,52.431155],[13.704511,52.432467],[13.70612,52.432225],[13.71038,52.431535],[13.711136,52.431289],[13.711801,52.430851],[13.711908,52.430302],[13.711839,52.429059],[13.711796,52.42864],[13.711367,52.42831],[13.710417,52.427744]]}},
    {"type":"Feature","properties":{"start": "Spree", "end": "Spree", "sidetrack" : true, "waterbody": "Alte Spree"},"geometry":{"type":"LineString","coordinates":[[13.580647,52.447398],[13.580604,52.448033],[13.580453,52.449144],[13.579949,52.450118],[13.578833,52.450818],[13.577374,52.451263],[13.57569,52.451217],[13.574402,52.450995],[13.574295,52.450249],[13.574703,52.449491],[13.575304,52.448673]]}},
    {"type":"Feature","properties":{"start": "Erkner, Rathauspark", "end": "Dämeritzsee", "sidetrack" : false, "waterbody": "Dämeritzsee"},"geometry":{"type":"LineString","coordinates":[[13.729005,52.420665],[13.743339,52.423544],[13.748531,52.42446],[13.749733,52.424787]]}},
    {"type":"Feature","properties":{"start": "Rüdersdorf, Mühlenfließbrücke", "end": "Wolterdorf Schleuse", "sidetrack" : false, "waterbody": "Kalksee"},"geometry":{"type":"LineString","coordinates":[[13.773454,52.4739],[13.771191,52.472413],[13.767693,52.469397],[13.767682,52.468214],[13.768981,52.466233],[13.769764,52.465599],[13.771491,52.46539],[13.773487,52.46575],[13.775128,52.465449],[13.776147,52.464612],[13.765311,52.449942],[13.76434,52.447621],[13.763906,52.44682],[13.764126,52.445508],[13.764861,52.444534],[13.765354,52.443808],[13.765123,52.44284]]}},
    {"type":"Feature","properties":{"start": "Wolterdorf Schleuse", "end": "Erkner, Rathauspark", "sidetrack" : false, "waterbody": "Kalksee"},"geometry":{"type":"LineString","coordinates":[[13.76559,52.441611],[13.761148,52.433043],[13.757479,52.430177],[13.754754,52.426946],[13.753252,52.426291],[13.751004,52.425977],[13.749513,52.424996]]}},
    {"type":"Feature","properties":{"start": "Lohmühlenbrücke", "end": "Urbanhafen", "sidetrack" : false, "waterbody": "Landwehrkanal"},"geometry":{"type":"LineString","coordinates":[[13.439021,52.490529],[13.437288,52.490813],[13.422074,52.495686],[13.420079,52.496022],[13.41819,52.495973],[13.416501,52.495421],[13.415068,52.495252],[13.413389,52.495242],[13.409355,52.495761]]}},
    {"type":"Feature","properties":{"start": "Urbanhafen", "end": "Kreuzberg", "sidetrack" : false, "waterbody": "Landwehrkanal"},"geometry":{"type":"LineString","coordinates":[[13.409259,52.495768],[13.405214,52.496525],[13.401631,52.4968],[13.39883,52.497303],[13.396942,52.497711],[13.395708,52.497838],[13.394625,52.497904],[13.391948,52.497632],[13.390376,52.497606],[13.388976,52.497815],[13.385221,52.498707],[13.382989,52.498965],[13.380328,52.498955],[13.379121,52.499269],[13.37807,52.499752],[13.377346,52.500719],[13.376541,52.501747],[13.375366,52.502433],[13.373988,52.50321],[13.37307,52.504177],[13.371815,52.504957],[13.370206,52.50562],[13.368387,52.506035],[13.365045,52.506015],[13.36386,52.505862],[13.362481,52.505692],[13.360384,52.505995],[13.358458,52.506551],[13.357406,52.506691],[13.356215,52.506502],[13.352959,52.505731],[13.352042,52.50579],[13.351318,52.505982],[13.348137,52.507285],[13.346613,52.50786],[13.345438,52.508258],[13.343952,52.508882],[13.341447,52.509509],[13.338239,52.510717],[13.337896,52.51105]]}},
    {"type":"Feature","properties":{"start": "Unterschleuse", "end": "Spree", "sidetrack" : false, "waterbody": "Landwehrkanal"},"geometry":{"type":"LineString","coordinates":[[13.33774,52.511063],[13.336421,52.511361],[13.335364,52.511623],[13.332172,52.512264],[13.331137,52.512734],[13.330649,52.513616],[13.329962,52.514115],[13.328492,52.514673],[13.32699,52.515989],[13.325595,52.516929],[13.324742,52.517256],[13.319335,52.519466],[13.317254,52.520438]]}},
    {"type":"Feature","properties":{"start":"Fürstenwalde", "end": "Große Tränke", "sidetrack":false, "waterbody": "Spree"},"geometry":{"type":"LineString","coordinates":[[14.053745,52.362078],[14.048703,52.363336],[14.0413,52.363808],[14.030957,52.3631],[14.025185,52.36314],[14.021237,52.363834],[14.016731,52.365498],[14.014049,52.36614],[14.009682,52.366622],[14.001195,52.366645],[13.997816,52.367287],[13.996834,52.368263]]}},
    {"type":"Feature","properties":{"start":"Große Tränke", "end": "Hangelsberg", "sidetrack":false, "waterbody": "Müggelspree"},"geometry":{"type":"LineString","coordinates":[[13.99655,52.368849],[13.996754,52.369442],[13.997135,52.370113],[13.998229,52.371155],[13.99847,52.37182],[13.998025,52.373389],[13.997558,52.374201],[13.996877,52.37483],[13.996148,52.375072],[13.994978,52.37501],[13.993846,52.374541],[13.992848,52.374351],[13.990805,52.374663],[13.986111,52.376012],[13.98419,52.375796],[13.983514,52.375488],[13.981068,52.374767],[13.978729,52.374623],[13.977699,52.374833],[13.971777,52.378003],[13.969674,52.378664],[13.964159,52.379915],[13.962722,52.379896],[13.961037,52.379693],[13.959042,52.380171],[13.957583,52.380911],[13.956081,52.382515],[13.955158,52.382941],[13.953956,52.383177],[13.953066,52.383707],[13.951886,52.384499],[13.949965,52.384716],[13.94857,52.384951],[13.947927,52.385455],[13.947937,52.386006],[13.94842,52.386523],[13.94856,52.387099],[13.948281,52.387649],[13.947626,52.388049],[13.946414,52.388487],[13.945127,52.388756],[13.943979,52.388959],[13.943088,52.3889],[13.942283,52.388468],[13.941725,52.388055],[13.940953,52.387518],[13.940052,52.387151],[13.938979,52.38704],[13.93708,52.387466],[13.935975,52.387701],[13.933926,52.387616],[13.933389,52.387832],[13.933421,52.388638],[13.934119,52.389358],[13.935063,52.390504],[13.935202,52.39201],[13.934752,52.393025],[13.933915,52.393738],[13.933593,52.393997]]}},
    {"type":"Feature","properties":{"start":"Hangelsberg", "end": "Wasserwanderrastplatz", "sidetrack":false, "waterbody": "Müggelspree"},"geometry":{"type":"LineString","coordinates":[[13.93348,52.394002],[13.931107,52.393985],[13.929661,52.393514],[13.926018,52.391401],[13.925278,52.390628],[13.924527,52.389731],[13.923283,52.389358],[13.922199,52.389496],[13.920321,52.390314],[13.919699,52.390995],[13.919774,52.39148],[13.920053,52.391794],[13.921298,52.392376],[13.921555,52.392619],[13.921437,52.393018],[13.9206,52.393404],[13.91941,52.393326],[13.918079,52.393404],[13.916856,52.39381],[13.916727,52.39474],[13.917221,52.395423],[13.917494,52.396049],[13.917156,52.396806],[13.916545,52.397247],[13.915724,52.398851],[13.915118,52.399542],[13.914185,52.399918],[13.913439,52.399951],[13.911862,52.399607],[13.909281,52.398717],[13.908294,52.39799],[13.908005,52.397372],[13.908337,52.396884],[13.909239,52.395761],[13.909255,52.395031],[13.908761,52.394324],[13.907672,52.393643],[13.906401,52.393136],[13.904384,52.392985],[13.902377,52.393048],[13.899652,52.393598],[13.89873,52.393863],[13.898118,52.39383],[13.897662,52.393503],[13.897458,52.392861],[13.897195,52.392357],[13.896005,52.391781],[13.894106,52.390946],[13.892593,52.390134],[13.892325,52.389803],[13.892432,52.389348],[13.893086,52.388726],[13.893655,52.388353],[13.894669,52.388189],[13.895629,52.387868],[13.895999,52.387482],[13.895468,52.386922],[13.89425,52.386484],[13.892775,52.38596],[13.892013,52.38504],[13.891793,52.384152],[13.891568,52.3832]]}},
    {"type":"Feature","properties":{"start":"Wasserwanderrastplatz", "end": "Dämeritzsee", "sidetrack":false, "waterbody": "Müggelspree"},"geometry":{"type":"LineString","coordinates":[[13.891557,52.38315],[13.890721,52.381945],[13.890077,52.381598],[13.888929,52.381526],[13.888296,52.381736],[13.887931,52.382293],[13.88748,52.382692],[13.88688,52.38283],[13.88615,52.382509],[13.885356,52.381913],[13.885045,52.381467],[13.885903,52.378953],[13.88556,52.378546],[13.885067,52.378219],[13.884369,52.378154],[13.883404,52.378396],[13.882384,52.3793],[13.882459,52.379699],[13.882985,52.380275],[13.882931,52.380983],[13.882416,52.381657],[13.881419,52.38209],[13.880539,52.381913],[13.879895,52.381507],[13.879659,52.381081],[13.879713,52.380937],[13.880678,52.380079],[13.880721,52.37949],[13.880357,52.378756],[13.879402,52.378023],[13.878844,52.377695],[13.878855,52.377237],[13.879262,52.376732],[13.880045,52.376464],[13.880818,52.37609],[13.881247,52.375894],[13.881311,52.375304],[13.881097,52.374826],[13.880646,52.37446],[13.879927,52.37427],[13.879144,52.374283],[13.877631,52.37482],[13.877245,52.375376],[13.877288,52.376156],[13.876956,52.376569],[13.876076,52.376791],[13.875142,52.376654],[13.874552,52.376241],[13.874284,52.375547],[13.874037,52.374198],[13.873479,52.37349],[13.87202,52.373261],[13.868662,52.373654],[13.867718,52.373418],[13.867224,52.373077],[13.866881,52.372291],[13.866742,52.370791],[13.865958,52.370353],[13.859532,52.368138],[13.858899,52.36806],[13.856592,52.368767],[13.854865,52.368564],[13.854071,52.368086],[13.853824,52.36673],[13.851357,52.365249],[13.849168,52.362956],[13.8474,52.362249],[13.845509,52.361666],[13.844061,52.361096],[13.842237,52.360617],[13.841422,52.360178],[13.841186,52.359897],[13.841282,52.359202],[13.841432,52.358442],[13.841282,52.357721],[13.838911,52.356378],[13.837688,52.356004],[13.836958,52.356201],[13.836744,52.356653],[13.836873,52.357322],[13.836669,52.357761],[13.836122,52.358023],[13.835263,52.358075],[13.834845,52.357918],[13.834287,52.357459],[13.833472,52.356896],[13.832506,52.356706],[13.831326,52.356679],[13.828418,52.357472],[13.827013,52.357662],[13.825017,52.358088],[13.821455,52.35915],[13.82035,52.359196],[13.819503,52.358992],[13.81887,52.358553],[13.818258,52.358232],[13.817067,52.358462],[13.814439,52.3593],[13.812883,52.360054],[13.81063,52.361351],[13.809632,52.362052],[13.807057,52.365361],[13.806649,52.365911],[13.805941,52.366881],[13.804525,52.368079],[13.803399,52.368643],[13.802358,52.368898],[13.801446,52.368859],[13.799515,52.368479],[13.798045,52.368197],[13.797133,52.368165],[13.795502,52.368721],[13.794333,52.369344],[13.794022,52.370189],[13.794343,52.370883],[13.794966,52.371807],[13.795202,52.372842],[13.794987,52.37389],[13.793893,52.374807],[13.792541,52.375403],[13.791876,52.375887],[13.791854,52.376811],[13.792326,52.377865],[13.792241,52.378304],[13.791661,52.378756],[13.790395,52.378959],[13.789226,52.37909],[13.788657,52.379621],[13.7887,52.38021],[13.78914,52.380865],[13.789247,52.381736],[13.788754,52.382437],[13.787659,52.382967],[13.785921,52.383118],[13.784269,52.382771],[13.782842,52.382443],[13.781437,52.382666],[13.780922,52.383006],[13.780535,52.383642],[13.780106,52.384513],[13.778948,52.38501],[13.777585,52.385082],[13.776383,52.384958],[13.7756,52.385194],[13.774023,52.386366],[13.773347,52.387099],[13.769367,52.388684],[13.767489,52.390347],[13.765751,52.391231],[13.763745,52.391689],[13.75926,52.391931],[13.756975,52.391741],[13.755366,52.391198],[13.753327,52.390962],[13.749851,52.390772],[13.746901,52.390641],[13.745087,52.391054],[13.744497,52.391794],[13.744178,52.392586],[13.744127,52.392915],[13.74417,52.393216],[13.744237,52.393488],[13.744645,52.393945],[13.745125,52.39436],[13.745997,52.394981],[13.746946,52.395495],[13.747357,52.395869],[13.747501,52.39612],[13.747507,52.396611],[13.747064,52.397316],[13.746943,52.398665],[13.746863,52.399316],[13.746375,52.399768],[13.74572,52.399944],[13.744873,52.400174],[13.74431,52.400452],[13.744181,52.400917],[13.744283,52.401417],[13.744556,52.401735],[13.744905,52.401918],[13.745264,52.402216],[13.745688,52.403047],[13.74579,52.404373],[13.745441,52.404769],[13.744658,52.405083],[13.743859,52.405224],[13.742663,52.405178],[13.741874,52.405276],[13.741241,52.405652],[13.740377,52.406235],[13.738124,52.407632],[13.737658,52.40809],[13.736858,52.409507],[13.735812,52.410038],[13.734777,52.410361],[13.73386,52.410849],[13.733661,52.411543],[13.729852,52.415423],[13.729552,52.416143],[13.729659,52.417059],[13.730528,52.418191],[13.731043,52.418833],[13.732181,52.419363],[13.733253,52.419683],[13.733114,52.420913]]}}
  ]
}