{
  "type": "FeatureCollection",
  "features": [
    {
      "type": "Feature",
      "properties": {
        "station_name": "Kosanke-Siedlung",
        "station_type": "tram"
      },
      "geometry": {
        "type": "LineString",
        "coordinates": [[13.484366,52.497388],[13.484226,52.49728],[13.483905,52.497436],[13.483781,52.497312],[13.483239,52.497551],[13.480911,52.495601],[13.480702,52.495702]]
      }
    }
  ,
    {
      "type": "Feature",
      "properties": {
        "station_name": "S Köpenick",
        "station_type": "train"
      },
      "geometry": {
        "type": "LineString",
        "coordinates":  [[13.580475,52.458664],[13.579901,52.458729],[13.579729,52.458353],[13.579391,52.458451],[13.578238,52.457118],[13.576312,52.454555],[13.574435,52.452717],[13.574767,52.452355],[13.575658,52.451701],[13.575556,52.451439]]
      }
    }
    ,
    {
      "type": "Feature",
      "properties": {
        "station_name": "Bammelecke",
        "station_type": "tram"
      },
      "geometry": {
        "type": "LineString",
        "coordinates":  [[13.620697,52.40594],[13.620799,52.406055],[13.622564,52.407524]]
      }
    }  
    ,
    {
      "type": "Feature",
      "properties": {
        "station_name": "Licht- und Luftbad Müggelsee",
        "station_type": "tram"
      },
      "geometry": {
        "type": "LineString",
        "coordinates":  [[13.67094,52.447305],[13.670431,52.446478],[13.670307,52.446383],[13.670082,52.446365]]
      }
    }
    ,
    {
      "type": "Feature",
      "properties": {
        "station_name": "S Erkner",
        "station_type": "train"
      },
      "geometry": {
        "type": "LineString",
        "coordinates":  [[13.75205,52.428385],[13.752238,52.427934],[13.751004,52.426969],[13.750857,52.426924],[13.751007,52.426777],[13.750723,52.426516],[13.750422,52.426516],[13.750497,52.426162],[13.75065,52.425982],[13.752024,52.424672],[13.75157,52.424491],[13.751487,52.424564],[13.750425,52.424411],[13.750495,52.424635]]
      }
    }
    ,
    {
      "type": "Feature",
      "properties": {
        "station_name": "S Oberspree",
        "station_type": "train"
      },
      "geometry": {
        "type": "LineString",
        "coordinates":  [[13.538074,52.45242],[13.539115,52.45259],[13.538783,52.453316],[13.540006,52.453806],[13.540735,52.453904],[13.543911,52.454074],[13.547763,52.453852],[13.548546,52.453754],[13.549372,52.45342],[13.549919,52.453669],[13.55038,52.453891]]
      }
    }
    ,
    {
      "type": "Feature",
      "properties": {
        "station_name": "Torellplatz",
        "station_type": "tram"
      },
      "geometry": {
        "type": "LineString",
        "coordinates":  [[13.771239,52.474142],[13.772111,52.473879],[13.772435,52.473941],[13.772636,52.474019],[13.772701,52.474017],[13.772891,52.473937],[13.773256,52.47407],[13.773406,52.473949]]
      }
    }
    ,
    {
      "type": "Feature",
      "properties": {
        "station_name": "Blockdammweg",
        "station_type": "tram"
      },
      "geometry": {
        "type": "LineString",
        "coordinates":  [[13.501763,52.483303],[13.501503,52.483216],[13.501591,52.483122],[13.501564,52.483051],[13.501154,52.482934],[13.501637,52.482498],[13.502111,52.481604],[13.501293,52.480742],[13.501108,52.480363],[13.499998,52.480395],[13.498995,52.48014],[13.498732,52.480026]]
      }
    }
    ,
    {
      "type": "Feature",
      "properties": {
        "station_name": "Hangelsberg",
        "station_type": "train"
      },
      "geometry": {
        "type": "LineString",
        "coordinates":  [[13.920965,52.400252],[13.921475,52.400089],[13.921362,52.399833],[13.921507,52.39981],[13.920965,52.398324],[13.921335,52.398203],[13.921239,52.398053],[13.922553,52.39766],[13.92428,52.397388],[13.927429,52.397018],[13.928373,52.3969],[13.928674,52.396845],[13.929259,52.396648],[13.934172,52.394295],[13.9341,52.394256],[13.93391,52.394259],[13.933698,52.394316],[13.933598,52.394251],[13.933555,52.394213]]
      }
    }
    ,
    {
      "type": "Feature",
      "properties": {
        "station_name": "Fürstenwalde",
        "station_type": "train"
      },
      "geometry": {
        "type": "LineString",
        "coordinates":  [[14.059643,52.366892],[14.059509,52.366591],[14.059668,52.366542],[14.059279,52.366075],[14.056889,52.363611],[14.056744,52.363595],[14.05669,52.363484],[14.056733,52.363459],[14.056615,52.363367],[14.056535,52.363173],[14.056385,52.363014],[14.055668,52.362755],[14.05533,52.362578],[14.055057,52.362378],[14.054443,52.362177],[14.054145,52.36211]]
      }
    }
  ,   
  {
      "type": "Feature",
      "properties": {
        "station_name": "Berkenbrück",
        "station_type": "train"
      },
      "geometry": {
        "type": "LineString",
        "coordinates":  [[14.165969,52.357132],[14.16495,52.357125],[14.164826,52.357037],[14.164349,52.356886],[14.160194,52.357171],[14.155219,52.356031],[14.153459,52.355421],[14.151142,52.354235],[14.148545,52.352191],[14.147923,52.351725],[14.148363,52.350008],[14.147902,52.349196],[14.147912,52.349091],[14.148926,52.34839],[14.148792,52.348009]]
      }
    }
,
    {
      "type": "Feature",
      "properties": {
        "station_name": "Woltersdorf Schleuse",
        "station_type": "tram"
      },
      "geometry": {
        "type": "LineString",
        "coordinates":  [[13.76401,52.443311],[13.764501,52.44284],[13.765064,52.442718],[13.765461,52.442657],[13.765569,52.442602],[13.765561,52.441702]]
      }
    }
    ,
    {
      "type": "Feature",
      "properties": {
        "station_name": "S Zeuthen",
        "station_type": "train"
      },
      "geometry": {
        "type": "LineString",
        "coordinates":  [[13.627617,52.348422],[13.62854,52.347308],[13.632746,52.347859],[13.633314,52.348383],[13.633883,52.34839]]
      }
    }
    ,
    {
      "type": "Feature",
      "properties": {
        "station_name": "S Friedrichshagen",
        "station_type": "train"
      },
      "geometry": {
        "type": "LineString",
        "coordinates":  [[13.623337,52.457369],[13.625515,52.457271],[13.624313,52.446875],[13.624763,52.446836],[13.624731,52.446143],[13.626845,52.44575],[13.626641,52.445312],[13.627349,52.445247],[13.627778,52.445024],[13.627886,52.444639],[13.627982,52.444246]]
      }
    },
    {
      "type": "Feature",
      "properties": {
        "station_name": "Müggelseedamm, Bölschestraße",
        "station_type": "tram"
      },
      "geometry": {
        "type": "LineString",
        "coordinates":  [[13.62427,52.447222],[13.624334,52.446869],[13.624753,52.446839],[13.624721,52.446153],[13.62685,52.44575],[13.626641,52.445306],[13.627349,52.445247],[13.627789,52.445028],[13.627977,52.444256]]
      }
    }
    ,
    {
      "type": "Feature",
      "properties": {
        "station_name": "U Prinzenstraße",
        "station_type": "metro"
      },
      "geometry": {
        "type": "LineString",
        "coordinates":  [[13.405976,52.498384],[13.40626,52.498024],[13.40663,52.497881],[13.40721,52.497195],[13.40707,52.496591],[13.411195,52.495921]]
      }
    }

  ]
}
